{"fetched_at":"2026-03-29T16:36:15Z","count":15609,"tles":[{"name":"KUIPER-00129","line1":"1 65958U 25228M   26087.78604044  .00004413  00000+0  60661-3 0  9991","line2":"2 65958  51.9002 263.6606 0001010 108.8992 251.2080 14.79993297 26231","category":"Other"}]}